METHANESAT              
1 59101U 24043D   25196.88845959  .00002194  00000+0  20326-3 0  9999
2 59101  97.8036 322.8208 0011984  58.4314 301.8075 14.95483693 74348
GOSAT-GW (IBUKI GW)     
1 64694U 25141A   25196.92017208  .00000549  00000+0  10747-3 0  9993
2 64694  98.0258 135.3255 0005985  96.7507 263.4378 14.66575767  2524
GHGSAT-C1               
1 46278U 20061G   25197.18742785  .00011523  00000+0  19682-3 0  9992
2 46278  97.2493 271.0958 0002283 161.6093 198.5242 15.51463591271085
GHGSAT-C2               
1 47509U 21006DA  25196.70852050  .00004254  00000+0  13736-3 0  9991
2 47509  97.2659 244.8416 0004234 306.3793  53.7059 15.32648375248229
GHGSAT-C3               
1 52737U 22057F   25197.16079246  .00007819  00000+0  28340-3 0  9993
2 52737  97.6167 327.6789 0005844 219.7768 140.3043 15.28637663174100
GHGSAT-C4               
1 52746U 22057Q   25197.17902091  .00007616  00000+0  27596-3 0  9994
2 52746  97.6096 326.8619 0006390 204.4629 155.6308 15.28655037174117
GHGSAT-C5               
1 52744U 22057N   25197.19522912  .00004344  00000+0  15872-3 0  9993
2 52744  97.6253 328.8989 0006910 217.2734 142.8026 15.28640760174111
GHGSAT-C6               
1 56204U 23054AC  25197.19225018  .00007110  00000+0  16740-3 0  9992
2 56204  97.3280  98.3988 0009361 171.4705 188.6703 15.42216448126499
GHGSAT-C7               
1 56209U 23054AH  25197.19955807  .00005940  00000+0  14381-3 0  9991
2 56209  97.3243  97.9708 0009541 165.3920 194.7605 15.41449638126496
GHGSAT-C8               
1 56186U 23054J   25197.16723102  .00007258  00000+0  17086-3 0  9992
2 56186  97.3251  97.8621 0005981 185.8034 174.3145 15.42241675126472
SENTINEL-5P             
1 42969U 17064A   25196.84440039  .00000033  00000+0  36704-4 0  9992
2 42969  98.7585 136.9382 0001309  89.9396 270.1930 14.19532294401842
ENMAP                   
1 52159U 22033C   25196.88640653  .00000283  00000+0  49641-4 0  9995
2 52159  97.9787 278.9673 0001421  86.6702 273.4669 14.74958617177082
PRISMA                  
1 44072U 19015A   25197.21298297  .00000585  00000+0  77296-4 0  9999
2 44072  97.8745 271.7946 0001516  90.7421 269.3967 14.83673794342239
SENTINEL-2A             
1 40697U 15028A   25197.20074536  .00000077  00000+0  45919-4 0  9998
2 40697  98.5686 271.8725 0001191  93.5032 266.6287 14.30817306525682
SENTINEL-2B             
1 42063U 17013A   25197.19356396  .00000076  00000+0  45594-4 0  9996
2 42063  98.5689 271.8072 0001226 100.1500 259.9821 14.30819179436605
SENTINEL-2C             
1 60989U 24157A   25196.80918260  .00000071  00000+0  43738-4 0  9994
2 60989  98.5678 271.5035 0001195  97.1850 262.9469 14.30817726 44887
LANDSAT 8               
1 39084U 13008A   25197.16251267  .00000237  00000+0  62667-4 0  9992
2 39084  98.2244 267.2843 0001351  88.8263 271.3091 14.57102349660788
LANDSAT 9               
1 49260U 21088A   25197.19682157  .00000249  00000+0  65360-4 0  9991
2 49260  98.2264 267.3163 0001501  88.1460 271.9910 14.57099500202065
TANAGER-1               
1 60507U 24149AR  25196.82757552  .00014882  00000+0  32995-3 0  9995
2 60507  97.4011 281.4960 0010512 246.3627 113.6518 15.43791314 51145
